QIANFAN-105             
1 66047U 25233Q   26015.42011773  .00000117  00000+0  83502-4 0  9997
2 66047  88.9932  58.4663 0013536 300.6626  59.3212 13.90528829 12672
QIANFAN-106             
1 66048U 25233R   26015.32447962  .00000057  00000+0  71380-4 0  9994
2 66048  88.9916  58.6621 0012819 297.9006  62.0846 13.50172776 12557
QIANFAN-107             
1 66049U 25233S   26015.18480914  .00000055  00000+0  67412-4 0  9992
2 66049  88.9924  58.6837 0003742 311.8980  48.1851 13.50987866 12531
QIANFAN-108             
1 66050U 25233T   26015.48362148  .00000066  00000+0  85944-4 0  9997
2 66050  88.9924  58.6523 0012399 303.1568  56.8392 13.49662863 12574
